{
  "type": "FeatureCollection",
  "features": [
    {
      "type": "Feature",
      "properties": {
        "norad_id": 66952,
        "name": "STARLINK-36122",
        "group": "last-30-days",
        "lat": 32.17778828006977,
        "lon": 63.22917684427704,
        "alt_km": 294.0583091053186,
        "timestamp": "2025-12-15T19:00:44.079810+00:00",
        "meta_object_name": "STARLINK-36122",
        "meta_object_id": "2025-286AD",
        "meta_epoch": "2025-12-14T20:00:06.000192",
        "meta_mean_motion": 15.94156246,
        "meta_eccentricity": 7.434e-05,
        "meta_inclination": 53.1562,
        "meta_ra_of_asc_node": 39.9691,
        "meta_arg_of_pericenter": 72.7342,
        "meta_mean_anomaly": 228.4555,
        "meta_ephemeris_type": 0,
        "meta_classification_type": "U",
        "meta_norad_cat_id": 66952,
        "meta_element_set_no": 999,
        "meta_rev_at_epoch": 233,
        "meta_bstar": -0.0041649617,
        "meta_mean_motion_dot": -0.01578111,
        "meta_mean_motion_ddot": 0.0007173689,
        "tle_line1": "1 66952U 25286AD  25348.83340278 -.01578111  71737-3 -41650-2 0  9990",
        "tle_line2": "2 66952  53.1562  39.9691 0000743  72.7342 228.4555 15.94156246  2330"
      },
      "geometry": {
        "type": "Point",
        "coordinates": [
          63.22917684427704,
          32.17778828006977
        ]
      }
    },
    {
      "type": "Feature",
      "properties": {
        "norad_id": 66953,
        "name": "HULIANWANG DIGUI-114",
        "group": "last-30-days",
        "lat": 76.89907672592818,
        "lon": 149.78173156952207,
        "alt_km": 997.5112386733199,
        "timestamp": "2025-12-15T19:00:44.079820+00:00",
        "meta_object_name": "HULIANWANG DIGUI-114",
        "meta_object_id": "2025-287A",
        "meta_epoch": "2025-12-11T05:43:48.442368",
        "meta_mean_motion": 13.68688345,
        "meta_eccentricity": 0.00085506,
        "meta_inclination": 86.4966,
        "meta_ra_of_asc_node": 346.7027,
        "meta_arg_of_pericenter": 209.4482,
        "meta_mean_anomaly": 150.6197,
        "meta_ephemeris_type": 0,
        "meta_classification_type": "U",
        "meta_norad_cat_id": 66953,
        "meta_element_set_no": 999,
        "meta_rev_at_epoch": 32,
        "meta_bstar": 1.3583638e-05,
        "meta_mean_motion_dot": 2.8e-07,
        "meta_mean_motion_ddot": 0,
        "tle_line1": "1 66953U 25287A   25345.23875512  .00000028  00000+0  13584-4 0  9999",
        "tle_line2": "2 66953  86.4966 346.7027 0008550 209.4482 150.6197 13.68688345   322"
      },
      "geometry": {
        "type": "Point",
        "coordinates": [
          149.78173156952207,
          76.89907672592818
        ]
      }
    },
    {
      "type": "Feature",
      "properties": {
        "norad_id": 66954,
        "name": "HULIANWANG DIGUI-115",
        "group": "last-30-days",
        "lat": 74.48107901067635,
        "lon": 152.30329079197173,
        "alt_km": 996.8367477789543,
        "timestamp": "2025-12-15T19:00:44.079833+00:00",
        "meta_object_name": "HULIANWANG DIGUI-115",
        "meta_object_id": "2025-287B",
        "meta_epoch": "2025-12-14T23:12:05.154912",
        "meta_mean_motion": 13.68791881,
        "meta_eccentricity": 0.00087473,
        "meta_inclination": 86.4972,
        "meta_ra_of_asc_node": 345.3468,
        "meta_arg_of_pericenter": 197.0382,
        "meta_mean_anomaly": 163.0485,
        "meta_ephemeris_type": 0,
        "meta_classification_type": "U",
        "meta_norad_cat_id": 66954,
        "meta_element_set_no": 999,
        "meta_rev_at_epoch": 83,
        "meta_bstar": 2.5809268e-05,
        "meta_mean_motion_dot": 3.9e-07,
        "meta_mean_motion_ddot": 0,
        "tle_line1": "1 66954U 25287B   25348.96672633  .00000039  00000+0  25809-4 0  9997",
        "tle_line2": "2 66954  86.4972 345.3468 0008747 197.0382 163.0485 13.68791881   837"
      },
      "geometry": {
        "type": "Point",
        "coordinates": [
          152.30329079197173,
          74.48107901067635
        ]
      }
    },
    {
      "type": "Feature",
      "properties": {
        "norad_id": 66955,
        "name": "HULIANWANG DIGUI-116",
        "group": "last-30-days",
        "lat": 71.76871291029097,
        "lon": 154.2991764199262,
        "alt_km": 995.7457531303489,
        "timestamp": "2025-12-15T19:00:44.079847+00:00",
        "meta_object_name": "HULIANWANG DIGUI-116",
        "meta_object_id": "2025-287C",
        "meta_epoch": "2025-12-14T02:08:18.133728",
        "meta_mean_motion": 13.68903211,
        "meta_eccentricity": 0.00080818,
        "meta_inclination": 86.4907,
        "meta_ra_of_asc_node": 345.6576,
        "meta_arg_of_pericenter": 193.9217,
        "meta_mean_anomaly": 166.172,
        "meta_ephemeris_type": 0,
        "meta_classification_type": "U",
        "meta_norad_cat_id": 66955,
        "meta_element_set_no": 999,
        "meta_rev_at_epoch": 71,
        "meta_bstar": 2.5654516e-05,
        "meta_mean_motion_dot": 3.9e-07,
        "meta_mean_motion_ddot": 0,
        "tle_line1": "1 66955U 25287C   25348.08909877  .00000039  00000+0  25655-4 0  9993",
        "tle_line2": "2 66955  86.4907 345.6576 0008081 193.9217 166.1720 13.68903211   717"
      },
      "geometry": {
        "type": "Point",
        "coordinates": [
          154.2991764199262,
          71.76871291029097
        ]
      }
    },
    {
      "type": "Feature",
      "properties": {
        "norad_id": 66956,
        "name": "HULIANWANG DIGUI-117",
        "group": "last-30-days",
        "lat": 68.98028539519828,
        "lon": 155.87379155486283,
        "alt_km": 994.8885250107178,
        "timestamp": "2025-12-15T19:00:44.079861+00:00",
        "meta_object_name": "HULIANWANG DIGUI-117",
        "meta_object_id": "2025-287D",
        "meta_epoch": "2025-12-11T19:45:00.614592",
        "meta_mean_motion": 13.6901764,
        "meta_eccentricity": 0.00072845,
        "meta_inclination": 86.4968,
        "meta_ra_of_asc_node": 346.4938,
        "meta_arg_of_pericenter": 195.1574,
        "meta_mean_anomaly": 164.9368,
        "meta_ephemeris_type": 0,
        "meta_classification_type": "U",
        "meta_norad_cat_id": 66956,
        "meta_element_set_no": 999,
        "meta_rev_at_epoch": 40,
        "meta_bstar": 1.8810541e-05,
        "meta_mean_motion_dot": 3.3e-07,
        "meta_mean_motion_ddot": 0,
        "tle_line1": "1 66956U 25287D   25345.82292378  .00000033  00000+0  18811-4 0  9994",
        "tle_line2": "2 66956  86.4968 346.4938 0007284 195.1574 164.9368 13.69017640   403"
      },
      "geometry": {
        "type": "Point",
        "coordinates": [
          155.87379155486283,
          68.98028539519828
        ]
      }
    },
    {
      "type": "Feature",
      "properties": {
        "norad_id": 66957,
        "name": "HULIANWANG DIGUI-118",
        "group": "last-30-days",
        "lat": 66.14028712459012,
        "lon": 157.07549728649536,
        "alt_km": 994.2935736988511,
        "timestamp": "2025-12-15T19:00:44.079871+00:00",
        "meta_object_name": "HULIANWANG DIGUI-118",
        "meta_object_id": "2025-287E",
        "meta_epoch": "2025-12-12T16:47:31.774848",
        "meta_mean_motion": 13.69137019,
        "meta_eccentricity": 0.00072192,
        "meta_inclination": 86.4945,
        "meta_ra_of_asc_node": 346.17,
        "meta_arg_of_pericenter": 190.5502,
        "meta_mean_anomaly": 169.5507,
        "meta_ephemeris_type": 0,
        "meta_classification_type": "U",
        "meta_norad_cat_id": 66957,
        "meta_element_set_no": 999,
        "meta_rev_at_epoch": 52,
        "meta_bstar": -0.00019372766,
        "meta_mean_motion_dot": -1.51e-06,
        "meta_mean_motion_ddot": 0,
        "tle_line1": "1 66957U 25287E   25346.69967332 -.00000151  00000+0 -19373-3 0  9996",
        "tle_line2": "2 66957  86.4945 346.1700 0007219 190.5502 169.5507 13.69137019   523"
      },
      "geometry": {
        "type": "Point",
        "coordinates": [
          157.07549728649536,
          66.14028712459012
        ]
      }
    },
    {
      "type": "Feature",
      "properties": {
        "norad_id": 66958,
        "name": "CZ-6A R/B",
        "group": "last-30-days",
        "lat": 23.715722194191436,
        "lon": -13.521684728709218,
        "alt_km": 882.2780702057798,
        "timestamp": "2025-12-15T19:00:44.079881+00:00",
        "meta_object_name": "CZ-6A R/B",
        "meta_object_id": "2025-287F",
        "meta_epoch": "2025-12-14T22:14:24.405504",
        "meta_mean_motion": 13.94919967,
        "meta_eccentricity": 0.01072747,
        "meta_inclination": 86.5059,
        "meta_ra_of_asc_node": 345.2692,
        "meta_arg_of_pericenter": 95.5923,
        "meta_mean_anomaly": 265.7497,
        "meta_ephemeris_type": 0,
        "meta_classification_type": "U",
        "meta_norad_cat_id": 66958,
        "meta_element_set_no": 999,
        "meta_rev_at_epoch": 84,
        "meta_bstar": 0.00012904175,
        "meta_mean_motion_dot": 2.01e-06,
        "meta_mean_motion_ddot": 0,
        "tle_line1": "1 66958U 25287F   25348.92667136  .00000201  00000+0  12904-3 0  9991",
        "tle_line2": "2 66958  86.5059 345.2692 0107274  95.5923 265.7497 13.94919967   844"
      },
      "geometry": {
        "type": "Point",
        "coordinates": [
          -13.521684728709218,
          23.715722194191436
        ]
      }
    }
  ]
}